NORAD_CAT_ID,OBJECT_NAME,OBJECT_TYPE,EPOCH,MEAN_MOTION,ECCENTRICITY,INCLINATION,RA_OF_ASC_NODE,ARG_OF_PERICENTER,MEAN_ANOMALY,BSTAR,MEAN_MOTION_DOT,MEAN_MOTION_DDOT,TLE_LINE0,TLE_LINE1,TLE_LINE2,SEMIMAJOR_AXIS,PERIOD,APOGEE,PERIGEE,DECAYED
53560.0,STARLINK-4564,PAYLOAD,2023-10-06 17:30:21,15.08844022,0.0001438,53.218,67.0429,71.7367,288.3781,2.3904e-05,9.3e-07,0.0,0 STARLINK-4564,1 53560U 22101AK  23279.72941084  .00000093  00000-0  23904-4 0  9997,2 53560  53.2180  67.0429 0001438  71.7367 288.3781 15.08844022 62846,6917.868,95.437,540.728,538.738,0.0
53560.0,STARLINK-4564,PAYLOAD,2023-10-07 14:10:22,15.0883703,0.0001333,53.2173,63.1789,83.7,276.4144,0.00015178,2.128e-05,0.0,0 STARLINK-4564,1 53560U 22101AK  23280.59053408  .00002128  00000-0  15178-3 0  9992,2 53560  53.2173  63.1789 0001333  83.7000 276.4144 15.08837030 62971,6917.889,95.438,540.677,538.832,0.0
53560.0,STARLINK-4564,PAYLOAD,2023-10-07 18:56:30,15.08850733,0.0001513,53.2184,62.2835,79.8656,280.2506,0.0001751,2.501e-05,0.0,0 STARLINK-4564,1 53560U 22101AK  23280.78924610  .00002501  00000-0  17510-3 0  9992,2 53560  53.2184  62.2835 0001513  79.8656 280.2506 15.08850733 63003,6917.848,95.437,540.759,538.666,0.0
53560.0,STARLINK-4564,PAYLOAD,2023-10-08 02:53:27,15.08842074,0.0001422,53.2197,60.7926,89.7847,270.3308,7.4595e-05,8.99e-06,0.0,0 STARLINK-4564,1 53560U 22101AK  23281.12045145  .00000899  00000-0  74595-4 0  9993,2 53560  53.2197  60.7926 0001422  89.7847 270.3308 15.08842074 63056,6917.874,95.437,540.723,538.755,0.0
53560.0,STARLINK-4564,PAYLOAD,2023-10-08 14:01:08,15.08844513,0.0001262,53.2197,58.7132,95.4529,264.6607,6.7604e-05,7.88e-06,0.0,0 STARLINK-4564,1 53560U 22101AK  23281.58413172  .00000788  00000-0  67604-4 0  9992,2 53560  53.2197  58.7132 0001262  95.4529 264.6607 15.08844513 63121,6917.867,95.437,540.605,538.859,0.0
53560.0,STARLINK-4564,PAYLOAD,2023-10-08 15:36:31,15.08849393,0.0001395,53.2179,58.419,92.6614,267.4538,0.00012212,1.657e-05,0.0,0 STARLINK-4564,1 53560U 22101AK  23281.65036834  .00001657  00000-0  12212-3 0  9996,2 53560  53.2179  58.4190 0001395  92.6614 267.4538 15.08849393 63139,6917.852,95.437,540.682,538.752,0.0
53560.0,STARLINK-4564,PAYLOAD,2023-10-09 09:05:46,15.08846408,0.0001889,53.2205,55.1477,76.5355,283.5848,-9.2842e-06,-4.36e-06,0.0,0 STARLINK-4564,1 53560U 22101AK  23282.37901511 -.00000436  00000-0 -92842-5 0  9994,2 53560  53.2205  55.1477 0001889  76.5355 283.5848 15.08846408 63241,6917.861,95.437,541.033,538.419,0.0
53560.0,STARLINK-4564,PAYLOAD,2023-10-09 13:51:55,15.08848508,0.0001607,53.2193,54.2556,94.7781,265.3395,1.6537e-05,-2.5e-07,0.0,0 STARLINK-4564,1 53560U 22101AK  23282.57773102 -.00000025  00000-0  16537-4 0  9998,2 53560  53.2193  54.2556 0001607  94.7781 265.3395 15.08848508 63279,6917.854,95.437,540.831,538.608,0.0
53560.0,STARLINK-4564,PAYLOAD,2023-10-09 15:27:19,15.08848463,0.0001755,53.2198,53.9592,82.4634,277.6557,1.7827e-05,-4e-08,0.0,0 STARLINK-4564,1 53560U 22101AK  23282.64397177 -.00000004  00000-0  17827-4 0  9990,2 53560  53.2198  53.9592 0001755  82.4634 277.6557 15.08848463 63282,6917.855,95.437,540.934,538.505,0.0
53560.0,STARLINK-4564,PAYLOAD,2023-10-10 13:42:42,15.08846807,0.0001331,53.2198,49.7975,101.3889,258.7253,0.00015854,2.237e-05,0.0,0 STARLINK-4564,1 53560U 22101AK  23283.57132612  .00002237  00000-0  15854-3 0  9990,2 53560  53.2198  49.7975 0001331 101.3889 258.7253 15.08846807 63422,6917.86,95.437,540.645,538.804,0.0
53560.0,STARLINK-4564,PAYLOAD,2023-10-11 13:33:30,15.08835426,0.0001701,53.2189,45.3372,104.5276,255.5905,1.6428e-05,-2.7e-07,0.0,0 STARLINK-4564,1 53560U 22101AK  23284.56493680 -.00000027  00000-0  16428-4 0  9990,2 53560  53.2189  45.3372 0001701 104.5276 255.5905 15.08835426 63571,6917.894,95.438,540.936,538.583,0.0
53560.0,STARLINK-4564,PAYLOAD,2023-10-11 15:08:53,15.08839399,0.0001462,53.2185,45.0392,91.5855,268.5304,4.471e-05,4.24e-06,0.0,0 STARLINK-4564,1 53560U 22101AK  23284.63117527  .00000424  00000-0  44710-4 0  9996,2 53560  53.2185  45.0392 0001462  91.5855 268.5304 15.08839399 63589,6917.882,95.438,540.759,538.736,0.0
53560.0,STARLINK-4564,PAYLOAD,2023-10-12 13:24:17,15.08844505,0.0001536,53.2191,40.8777,93.5561,266.5607,8.598e-05,1.081e-05,0.0,0 STARLINK-4564,1 53560U 22101AK  23285.55853250  .00001081  00000-0  85980-4 0  9992,2 53560  53.2191  40.8777 0001536  93.5561 266.5607 15.08844505 63729,6917.867,95.437,540.794,538.669,0.0
53560.0,STARLINK-4564,PAYLOAD,2023-10-12 14:59:40,15.08851263,0.0001357,53.2177,40.5787,82.3725,277.7421,0.00017727,2.535e-05,0.0,0 STARLINK-4564,1 53560U 22101AK  23285.62476900  .00002535  00000-0  17727-3 0  9991,2 53560  53.2177  40.5787 0001357  82.3725 277.7421 15.08851263 63738,6917.846,95.437,540.65,538.772,0.0
53560.0,STARLINK-4564,PAYLOAD,2023-10-13 00:31:59,15.08845698,0.0001273,53.2179,38.7952,89.3543,270.7595,0.00024025,3.538e-05,0.0,0 STARLINK-4564,1 53560U 22101AK  23286.02221237  .00003538  00000-0  24025-3 0  9990,2 53560  53.2179  38.7952 0001273  89.3543 270.7595 15.08845698 63791,6917.863,95.437,540.609,538.847,0.0
53560.0,STARLINK-4564,PAYLOAD,2023-10-13 11:39:41,15.0883354,0.0001891,53.2188,36.7117,76.9648,283.1555,-6.427e-05,-1.311e-05,0.0,0 STARLINK-4564,1 53560U 22101AK  23286.48590156 -.00001311  00000-0 -64270-4 0  9995,2 53560  53.2188  36.7117 0001891  76.9648 283.1555 15.08833540 63861,6917.9,95.438,541.073,538.457,0.0
53560.0,STARLINK-4564,PAYLOAD,2023-10-13 14:50:27,15.08841637,0.0001389,53.219,36.1197,77.7705,282.3443,0.00011389,1.525e-05,0.0,0 STARLINK-4564,1 53560U 22101AK  23286.61837918  .00001525  00000-0  11389-3 0  9997,2 53560  53.2190  36.1197 0001389  77.7705 282.3443 15.08841637 63886,6917.875,95.437,540.701,538.779,0.0
53560.0,STARLINK-4564,PAYLOAD,2023-10-14 13:05:51,15.08850208,0.0001317,53.2178,31.9568,59.3937,300.7185,0.00012863,1.76e-05,0.0,0 STARLINK-4564,1 53560U 22101AK  23287.54573228  .00001760  00000-0  12863-3 0  9990,2 53560  53.2178  31.9568 0001317  59.3937 300.7185 15.08850208 64020,6917.849,95.437,540.625,538.803,0.0
53560.0,STARLINK-4564,PAYLOAD,2023-10-14 14:41:14,15.08857977,0.0001421,53.2184,31.6584,86.6886,273.4268,0.00024942,3.686e-05,0.0,0 STARLINK-4564,1 53560U 22101AK  23287.61196769  .00003686  00000-0  24942-3 0  9999,2 53560  53.2184  31.6584 0001421  86.6886 273.4268 15.08857977 64033,6917.825,95.436,540.673,538.707,0.0
53560.0,STARLINK-4564,PAYLOAD,2023-10-15 12:56:39,15.0883129,0.0001375,53.2182,27.4963,86.747,273.368,-4.1609e-05,-9.5e-06,0.0,0 STARLINK-4564,1 53560U 22101AK  23288.53934544 -.00000950  00000-0 -41609-4 0  9995,2 53560  53.2182  27.4963 0001375  86.7470 273.3680 15.08831290 64175,6917.907,95.438,540.723,538.821,0.0
53560.0,STARLINK-4564,PAYLOAD,2023-10-15 16:07:25,15.0883619,0.0001446,53.2183,26.9008,90.077,270.0388,4.6073e-05,4.45e-06,0.0,0 STARLINK-4564,1 53560U 22101AK  23288.67182382  .00000445  00000-0  46073-4 0  9992,2 53560  53.2183  26.9008 0001446  90.0770 270.0388 15.08836190 64195,6917.892,95.438,540.757,538.757,0.0
53560.0,STARLINK-4564,PAYLOAD,2023-10-16 11:12:03,15.08840656,0.0001444,53.2185,23.3309,104.5066,255.6086,0.0001535,2.156e-05,0.0,0 STARLINK-4564,1 53560U 22101AK  23289.46670438  .00002156  00000-0  15350-3 0  9998,2 53560  53.2185  23.3309 0001444 104.5066 255.6086 15.08840656 64319,6917.878,95.438,540.742,538.744,0.0
53560.0,STARLINK-4564,PAYLOAD,2023-10-16 12:47:26,15.08842793,0.0001433,53.2176,23.0367,88.2466,271.8691,0.00021344,3.111e-05,0.0,0 STARLINK-4564,1 53560U 22101AK  23289.53294440  .00003111  00000-0  21344-3 0  9993,2 53560  53.2176  23.0367 0001433  88.2466 271.8691 15.08842793 64327,6917.872,95.437,540.728,538.746,0.0
53560.0,STARLINK-4564,PAYLOAD,2023-10-17 12:38:13,15.08846022,0.0001506,53.2186,18.5739,98.1375,261.9788,0.00029386,4.393e-05,0.0,0 STARLINK-4564,1 53560U 22101AK  23290.52654490  .00004393  00000-0  29386-3 0  9996,2 53560  53.2186  18.5739 0001506  98.1375 261.9788 15.08846022 64472,6917.862,95.437,540.769,538.685,0.0
53560.0,STARLINK-4564,PAYLOAD,2023-10-17 15:48:59,15.08849151,0.0001531,53.2185,17.9792,97.6426,262.474,0.0003163,4.751e-05,0.0,0 STARLINK-4564,1 53560U 22101AK  23290.65902296  .00004751  00000-0  31630-3 0  9993,2 53560  53.2185  17.9792 0001531  97.6426 262.4740 15.08849151 64494,6917.852,95.437,540.777,538.658,0.0
53560.0,STARLINK-4564,PAYLOAD,2023-10-18 10:53:37,15.08845337,0.0001486,53.218,14.4119,96.726,263.3901,6.908e-05,8.12e-06,0.0,0 STARLINK-4564,1 53560U 22101AK  23291.45390307  .00000812  00000-0  69080-4 0  9991,2 53560  53.2180  14.4119 0001486  96.7260 263.3901 15.08845337 64614,6917.864,95.437,540.757,538.701,0.0
53560.0,STARLINK-4564,PAYLOAD,2023-10-18 22:01:18,15.08850571,0.0001387,53.2181,12.3308,95.0692,265.0458,0.00015447,2.172e-05,0.0,0 STARLINK-4564,1 53560U 22101AK  23291.91757865  .00002172  00000-0  15447-3 0  9996,2 53560  53.2181  12.3308 0001387  95.0692 265.0458 15.08850571 64682,6917.848,95.437,540.673,538.754,0.0
53560.0,STARLINK-4564,PAYLOAD,2023-10-19 10:44:23,15.08849699,0.0001748,53.2191,9.9527,98.5886,261.5304,6.6974e-05,7.78e-06,0.0,0 STARLINK-4564,1 53560U 22101AK  23292.44749719  .00000778  00000-0  66974-4 0  9996,2 53560  53.2191   9.9527 0001748  98.5886 261.5304 15.08849699 64761,6917.851,95.437,540.925,538.507,0.0
53560.0,STARLINK-4564,PAYLOAD,2023-10-20 04:13:38,15.08838032,0.0001753,53.2178,6.6839,87.279,272.8403,-2.5535e-05,-6.94e-06,0.0,0 STARLINK-4564,1 53560U 22101AK  23293.17614357 -.00000694  00000-0 -25535-4 0  9993,2 53560  53.2178   6.6839 0001753  87.2790 272.8403 15.08838032 64877,6917.886,95.438,540.964,538.539,0.0
53560.0,STARLINK-4564,PAYLOAD,2023-10-20 10:35:11,15.08836887,0.0001481,53.2185,5.4919,104.0695,256.0462,-3.0203e-05,-7.69e-06,0.0,0 STARLINK-4564,1 53560U 22101AK  23293.44110888 -.00000769  00000-0 -30203-4 0  9994,2 53560  53.2185   5.4919 0001481 104.0695 256.0462 15.08836887 64911,6917.89,95.438,540.779,538.73,0.0
